[{"OBJECT_NAME":"GAOFEN-14 01","OBJECT_ID":"2020-092A","EPOCH":"2026-03-09T23:18:15.156000","MEAN_MOTION":15.25725011,"ECCENTRICITY":0.0008015,"INCLINATION":97.4817,"RA_OF_ASC_NODE":139.2507,"ARG_OF_PERICENTER":138.8844,"MEAN_ANOMALY":221.2999,"EPHEMERIS_TYPE":0,"CLASSIFICATION_TYPE":"U","NORAD_CAT_ID":47231,"ELEMENT_SET_NO":999,"REV_AT_EPOCH":29270,"BSTAR":0.00022250672,"MEAN_MOTION_DOT":5.605e-5,"MEAN_MOTION_DDOT":0},{"OBJECT_NAME":"NEXTSAT-2","OBJECT_ID":"2023-072A","EPOCH":"2026-03-09T23:10:55.073280","MEAN_MOTION":15.26393087,"ECCENTRICITY":0.00062633,"INCLINATION":97.5306,"RA_OF_ASC_NODE":265.1019,"ARG_OF_PERICENTER":22.4193,"MEAN_ANOMALY":337.7318,"EPHEMERIS_TYPE":0,"CLASSIFICATION_TYPE":"U","NORAD_CAT_ID":56743,"ELEMENT_SET_NO":999,"REV_AT_EPOCH":15445,"BSTAR":0.00056400163,"MEAN_MOTION_DOT":0.00014622,"MEAN_MOTION_DDOT":0}]
